[{"OBJECT_NAME":"GLOBALSTAR M080","OBJECT_ID":"2011-080B","EPOCH":"2026-03-09T22:54:28.912320","MEAN_MOTION":12.62267152,"ECCENTRICITY":0.00010928,"INCLINATION":52.008,"RA_OF_ASC_NODE":321.0695,"ARG_OF_PERICENTER":66.5328,"MEAN_ANOMALY":47.2792,"EPHEMERIS_TYPE":0,"CLASSIFICATION_TYPE":"U","NORAD_CAT_ID":38041,"ELEMENT_SET_NO":999,"REV_AT_EPOCH":65635,"BSTAR":0.00012396235,"MEAN_MOTION_DOT":-8.2e-7,"MEAN_MOTION_DDOT":0},{"OBJECT_NAME":"ISIS 2","OBJECT_ID":"1971-024A","EPOCH":"2026-03-09T17:23:57.765696","MEAN_MOTION":12.67884283,"ECCENTRICITY":0.00439511,"INCLINATION":88.1738,"RA_OF_ASC_NODE":332.2357,"ARG_OF_PERICENTER":2.9135,"MEAN_ANOMALY":50.4236,"EPHEMERIS_TYPE":0,"CLASSIFICATION_TYPE":"U","NORAD_CAT_ID":5104,"ELEMENT_SET_NO":999,"REV_AT_EPOCH":54214,"BSTAR":8.5635445e-5,"MEAN_MOTION_DOT":2.7e-7,"MEAN_MOTION_DDOT":0}]
